[{"OBJECT_NAME":"ONEWEB-0299","OBJECT_ID":"2021-075P","EPOCH":"2026-03-17T01:59:38.424768","MEAN_MOTION":13.17648371,"ECCENTRICITY":0.000179,"INCLINATION":87.9173,"RA_OF_ASC_NODE":24.1283,"ARG_OF_PERICENTER":75.049,"MEAN_ANOMALY":285.084,"EPHEMERIS_TYPE":0,"CLASSIFICATION_TYPE":"U","NORAD_CAT_ID":49088,"ELEMENT_SET_NO":999,"REV_AT_EPOCH":22147,"BSTAR":-8.32633e-5,"MEAN_MOTION_DOT":-1.9e-7,"MEAN_MOTION_DDOT":0},{"OBJECT_NAME":"ONEWEB-0300","OBJECT_ID":"2021-075Q","EPOCH":"2026-03-17T02:03:55.331712","MEAN_MOTION":13.12445486,"ECCENTRICITY":0.00014568,"INCLINATION":87.9014,"RA_OF_ASC_NODE":8.9355,"ARG_OF_PERICENTER":83.4121,"MEAN_ANOMALY":276.7173,"EPHEMERIS_TYPE":0,"CLASSIFICATION_TYPE":"U","NORAD_CAT_ID":49089,"ELEMENT_SET_NO":999,"REV_AT_EPOCH":22312,"BSTAR":-0.00017459714,"MEAN_MOTION_DOT":-5.0e-7,"MEAN_MOTION_DDOT":0},{"OBJECT_NAME":"ONEWEB-0301","OBJECT_ID":"2021-075R","EPOCH":"2026-03-17T01:40:43.216896","MEAN_MOTION":13.12441774,"ECCENTRICITY":0.00015667,"INCLINATION":87.9012,"RA_OF_ASC_NODE":8.9389,"ARG_OF_PERICENTER":87.4203,"MEAN_ANOMALY":272.7105,"EPHEMERIS_TYPE":0,"CLASSIFICATION_TYPE":"U","NORAD_CAT_ID":49090,"ELEMENT_SET_NO":999,"REV_AT_EPOCH":22248,"BSTAR":-0.001251742,"MEAN_MOTION_DOT":-4.38e-6,"MEAN_MOTION_DDOT":0},{"OBJECT_NAME":"ONEWEB-0302","OBJECT_ID":"2021-075S","EPOCH":"2026-03-17T05:00:47.506752","MEAN_MOTION":13.12442762,"ECCENTRICITY":0.00020935,"INCLINATION":87.9011,"RA_OF_ASC_NODE":8.9207,"ARG_OF_PERICENTER":73.7617,"MEAN_ANOMALY":286.3742,"EPHEMERIS_TYPE":0,"CLASSIFICATION_TYPE":"U","NORAD_CAT_ID":49091,"ELEMENT_SET_NO":999,"REV_AT_EPOCH":22248,"BSTAR":-0.00043147334,"MEAN_MOTION_DOT":-1.43e-6,"MEAN_MOTION_DDOT":0},{"OBJECT_NAME":"ONEWEB-0304","OBJECT_ID":"2021-075T","EPOCH":"2026-03-17T03:12:32.823072","MEAN_MOTION":13.17649881,"ECCENTRICITY":0.00018519,"INCLINATION":87.9168,"RA_OF_ASC_NODE":24.148,"ARG_OF_PERICENTER":75.2533,"MEAN_ANOMALY":284.8803,"EPHEMERIS_TYPE":0,"CLASSIFICATION_TYPE":"U","NORAD_CAT_ID":49092,"ELEMENT_SET_NO":999,"REV_AT_EPOCH":22145,"BSTAR":2.8787912e-5,"MEAN_MOTION_DOT":2.4e-7,"MEAN_MOTION_DDOT":0},{"OBJECT_NAME":"ONEWEB-0305","OBJECT_ID":"2021-075U","EPOCH":"2026-03-17T03:02:49.969536","MEAN_MOTION":13.17649935,"ECCENTRICITY":0.00017335,"INCLINATION":87.9168,"RA_OF_ASC_NODE":24.1281,"ARG_OF_PERICENTER":67.3387,"MEAN_ANOMALY":292.7928,"EPHEMERIS_TYPE":0,"CLASSIFICATION_TYPE":"U","NORAD_CAT_ID":49093,"ELEMENT_SET_NO":999,"REV_AT_EPOCH":22148,"BSTAR":7.909183e-6,"MEAN_MOTION_DOT":1.6e-7,"MEAN_MOTION_DDOT":0},{"OBJECT_NAME":"ONEWEB-0308","OBJECT_ID":"2021-075V","EPOCH":"2026-03-17T04:51:02.147616","MEAN_MOTION":13.12442162,"ECCENTRICITY":0.00018111,"INCLINATION":87.901,"RA_OF_ASC_NODE":8.915,"ARG_OF_PERICENTER":78.36,"MEAN_ANOMALY":281.7732,"EPHEMERIS_TYPE":0,"CLASSIFICATION_TYPE":"U","NORAD_CAT_ID":49094,"ELEMENT_SET_NO":999,"REV_AT_EPOCH":22249,"BSTAR":0.00020344461,"MEAN_MOTION_DOT":8.6e-7,"MEAN_MOTION_DDOT":0},{"OBJECT_NAME":"ONEWEB-0309","OBJECT_ID":"2021-075W","EPOCH":"2026-03-16T21:39:38.686176","MEAN_MOTION":13.17645073,"ECCENTRICITY":0.00022221,"INCLINATION":87.9171,"RA_OF_ASC_NODE":24.1873,"ARG_OF_PERICENTER":74.3636,"MEAN_ANOMALY":285.7741,"EPHEMERIS_TYPE":0,"CLASSIFICATION_TYPE":"U","NORAD_CAT_ID":49095,"ELEMENT_SET_NO":999,"REV_AT_EPOCH":22142,"BSTAR":-9.5691616e-5,"MEAN_MOTION_DOT":-2.4e-7,"MEAN_MOTION_DDOT":0},{"OBJECT_NAME":"ONEWEB-0310","OBJECT_ID":"2021-075X","EPOCH":"2026-03-17T01:33:24.373152","MEAN_MOTION":13.12440612,"ECCENTRICITY":0.00018512,"INCLINATION":87.9006,"RA_OF_ASC_NODE":8.9718,"ARG_OF_PERICENTER":79.1943,"MEAN_ANOMALY":280.9394,"EPHEMERIS_TYPE":0,"CLASSIFICATION_TYPE":"U","NORAD_CAT_ID":49096,"ELEMENT_SET_NO":999,"REV_AT_EPOCH":22310,"BSTAR":-0.0011213894,"MEAN_MOTION_DOT":-3.91e-6,"MEAN_MOTION_DDOT":0},{"OBJECT_NAME":"ONEWEB-0311","OBJECT_ID":"2021-075Y","EPOCH":"2026-03-17T03:17:24.103392","MEAN_MOTION":13.1765171,"ECCENTRICITY":0.00015688,"INCLINATION":87.9171,"RA_OF_ASC_NODE":24.1355,"ARG_OF_PERICENTER":68.0546,"MEAN_ANOMALY":292.0752,"EPHEMERIS_TYPE":0,"CLASSIFICATION_TYPE":"U","NORAD_CAT_ID":49097,"ELEMENT_SET_NO":999,"REV_AT_EPOCH":22150,"BSTAR":-9.1805202e-5,"MEAN_MOTION_DOT":-2.3e-7,"MEAN_MOTION_DDOT":0},{"OBJECT_NAME":"ONEWEB-0312","OBJECT_ID":"2021-075Z","EPOCH":"2026-03-16T20:21:53.157888","MEAN_MOTION":13.17649403,"ECCENTRICITY":0.00019784,"INCLINATION":87.9162,"RA_OF_ASC_NODE":24.2103,"ARG_OF_PERICENTER":69.6191,"MEAN_ANOMALY":290.5153,"EPHEMERIS_TYPE":0,"CLASSIFICATION_TYPE":"U","NORAD_CAT_ID":49098,"ELEMENT_SET_NO":999,"REV_AT_EPOCH":22144,"BSTAR":5.4171951e-5,"MEAN_MOTION_DOT":3.4e-7,"MEAN_MOTION_DDOT":0},{"OBJECT_NAME":"ONEWEB-0313","OBJECT_ID":"2021-075AA","EPOCH":"2026-03-17T01:57:01.894752","MEAN_MOTION":13.17649757,"ECCENTRICITY":0.00018111,"INCLINATION":87.917,"RA_OF_ASC_NODE":24.1703,"ARG_OF_PERICENTER":76.8765,"MEAN_ANOMALY":283.2569,"EPHEMERIS_TYPE":0,"CLASSIFICATION_TYPE":"U","NORAD_CAT_ID":49099,"ELEMENT_SET_NO":999,"REV_AT_EPOCH":22146,"BSTAR":9.694214e-5,"MEAN_MOTION_DOT":5.1e-7,"MEAN_MOTION_DDOT":0},{"OBJECT_NAME":"ONEWEB-0314","OBJECT_ID":"2021-075AB","EPOCH":"2026-03-17T02:57:58.097376","MEAN_MOTION":13.17648843,"ECCENTRICITY":0.00019464,"INCLINATION":87.917,"RA_OF_ASC_NODE":24.1253,"ARG_OF_PERICENTER":67.7242,"MEAN_ANOMALY":292.4096,"EPHEMERIS_TYPE":0,"CLASSIFICATION_TYPE":"U","NORAD_CAT_ID":49100,"ELEMENT_SET_NO":999,"REV_AT_EPOCH":22144,"BSTAR":-5.3593474e-5,"MEAN_MOTION_DOT":-8.0e-8,"MEAN_MOTION_DDOT":0},{"OBJECT_NAME":"ONEWEB-0315","OBJECT_ID":"2021-075AC","EPOCH":"2026-03-17T04:33:57.992256","MEAN_MOTION":13.1244249,"ECCENTRICITY":0.00014904,"INCLINATION":87.9011,"RA_OF_ASC_NODE":8.9039,"ARG_OF_PERICENTER":72,"MEAN_ANOMALY":288.1291,"EPHEMERIS_TYPE":0,"CLASSIFICATION_TYPE":"U","NORAD_CAT_ID":49101,"ELEMENT_SET_NO":999,"REV_AT_EPOCH":22310,"BSTAR":0.0011337697,"MEAN_MOTION_DOT":4.21e-6,"MEAN_MOTION_DDOT":0},{"OBJECT_NAME":"ONEWEB-0316","OBJECT_ID":"2021-075AD","EPOCH":"2026-03-17T04:43:02.541216","MEAN_MOTION":13.18685569,"ECCENTRICITY":0.00017411,"INCLINATION":87.9243,"RA_OF_ASC_NODE":353.7362,"ARG_OF_PERICENTER":77.0981,"MEAN_ANOMALY":283.0346,"EPHEMERIS_TYPE":0,"CLASSIFICATION_TYPE":"U","NORAD_CAT_ID":49102,"ELEMENT_SET_NO":999,"REV_AT_EPOCH":22508,"BSTAR":0.0002114472,"MEAN_MOTION_DOT":9.6e-7,"MEAN_MOTION_DDOT":0},{"OBJECT_NAME":"ONEWEB-0317","OBJECT_ID":"2021-075AE","EPOCH":"2026-03-17T04:38:50.848512","MEAN_MOTION":13.1244269,"ECCENTRICITY":0.00025465,"INCLINATION":87.9013,"RA_OF_ASC_NODE":8.9256,"ARG_OF_PERICENTER":85.5324,"MEAN_ANOMALY":274.6095,"EPHEMERIS_TYPE":0,"CLASSIFICATION_TYPE":"U","NORAD_CAT_ID":49103,"ELEMENT_SET_NO":999,"REV_AT_EPOCH":22312,"BSTAR":0.00081913542,"MEAN_MOTION_DOT":3.07e-6,"MEAN_MOTION_DDOT":0},{"OBJECT_NAME":"ONEWEB-0318","OBJECT_ID":"2021-075AF","EPOCH":"2026-03-17T04:38:18.189312","MEAN_MOTION":13.18685804,"ECCENTRICITY":0.00015719,"INCLINATION":87.9253,"RA_OF_ASC_NODE":353.7301,"ARG_OF_PERICENTER":73.0133,"MEAN_ANOMALY":287.1171,"EPHEMERIS_TYPE":0,"CLASSIFICATION_TYPE":"U","NORAD_CAT_ID":49104,"ELEMENT_SET_NO":999,"REV_AT_EPOCH":22504,"BSTAR":5.7168824e-5,"MEAN_MOTION_DOT":3.5e-7,"MEAN_MOTION_DDOT":0}]
