ONEWEB-0299             
1 49088U 21075P   26076.08308362 -.00000019  00000+0 -83263-4 0  9992
2 49088  87.9173  24.1283 0001790  75.0490 285.0840 13.17648371221472
ONEWEB-0300             
1 49089U 21075Q   26076.08605708 -.00000050  00000+0 -17460-3 0  9997
2 49089  87.9014   8.9355 0001456  83.4121 276.7173 13.12445486223127
ONEWEB-0301             
1 49090U 21075R   26076.06994464 -.00000438  00000+0 -12517-2 0  9994
2 49090  87.9012   8.9389 0001566  87.4203 272.7105 13.12441774222486
ONEWEB-0302             
1 49091U 21075S   26076.20888318 -.00000143  00000+0 -43147-3 0  9998
2 49091  87.9011   8.9207 0002093  73.7617 286.3742 13.12442762222484
ONEWEB-0304             
1 49092U 21075T   26076.13371323  .00000024  00000+0  28788-4 0  9995
2 49092  87.9168  24.1480 0001851  75.2533 284.8803 13.17649881221459
ONEWEB-0305             
1 49093U 21075U   26076.12696724  .00000016  00000+0  79092-5 0  9996
2 49093  87.9168  24.1281 0001733  67.3387 292.7928 13.17649935221486
ONEWEB-0308             
1 49094U 21075V   26076.20210819  .00000086  00000+0  20344-3 0  9994
2 49094  87.9010   8.9150 0001811  78.3600 281.7732 13.12442162222496
ONEWEB-0309             
1 49095U 21075W   26075.90253109 -.00000024  00000+0 -95692-4 0  9993
2 49095  87.9171  24.1873 0002222  74.3636 285.7741 13.17645073221426
ONEWEB-0310             
1 49096U 21075X   26076.06486543 -.00000391  00000+0 -11214-2 0  9995
2 49096  87.9006   8.9718 0001851  79.1943 280.9394 13.12440612223108
ONEWEB-0311             
1 49097U 21075Y   26076.13708453 -.00000023  00000+0 -91805-4 0  9999
2 49097  87.9171  24.1355 0001568  68.0546 292.0752 13.17651710221502
ONEWEB-0312             
1 49098U 21075Z   26075.84853192  .00000034  00000+0  54172-4 0  9994
2 49098  87.9162  24.2103 0001978  69.6191 290.5153 13.17649403221440
ONEWEB-0313             
1 49099U 21075AA  26076.08127193  .00000051  00000+0  96942-4 0  9997
2 49099  87.9170  24.1703 0001811  76.8765 283.2569 13.17649757221462
ONEWEB-0314             
1 49100U 21075AB  26076.12358909 -.00000008  00000+0 -53593-4 0  9995
2 49100  87.9170  24.1253 0001946  67.7242 292.4096 13.17648843221443
ONEWEB-0315             
1 49101U 21075AC  26076.19025454  .00000421  00000+0  11338-2 0  9995
2 49101  87.9011   8.9039 0001490  72.0000 288.1291 13.12442490223104
ONEWEB-0316             
1 49102U 21075AD  26076.19655719  .00000096  00000+0  21145-3 0  9995
2 49102  87.9243 353.7362 0001741  77.0981 283.0346 13.18685569225080
ONEWEB-0317             
1 49103U 21075AE  26076.19364408  .00000307  00000+0  81914-3 0  9993
2 49103  87.9013   8.9256 0002546  85.5324 274.6095 13.12442690223126
ONEWEB-0318             
1 49104U 21075AF  26076.19326608  .00000035  00000+0  57169-4 0  9998
2 49104  87.9253 353.7301 0001571  73.0133 287.1171 13.18685804225041
